{
    "links": {
        "self": "http://www.neowsapp.com/rest/v1/neo/54087785?api_key=iIulBulltgU6a56xZRHN4H3l9WmuAYTsLGpBGhQ2"
    },
    "id": "54087785",
    "neo_reference_id": "54087785",
    "name": "(2020 VJ4)",
    "designation": "2020 VJ4",
    "nasa_jpl_url": "http://ssd.jpl.nasa.gov/sbdb.cgi?sstr=54087785",
    "absolute_magnitude_h": 26.174,
    "estimated_diameter": {
        "kilometers": {
            "estimated_diameter_min": 0.0154794304,
            "estimated_diameter_max": 0.0346130587
        },
        "meters": {
            "estimated_diameter_min": 15.4794304283,
            "estimated_diameter_max": 34.6130586908
        },
        "miles": {
            "estimated_diameter_min": 0.0096184692,
            "estimated_diameter_max": 0.0215075509
        },
        "feet": {
            "estimated_diameter_min": 50.7855345265,
            "estimated_diameter_max": 113.559907475
        }
    },
    "is_potentially_hazardous_asteroid": false,
    "close_approach_data": [
        {
            "close_approach_date": "2020-11-08",
            "close_approach_date_full": "2020-Nov-08 06:29",
            "epoch_date_close_approach": 1604816940000,
            "relative_velocity": {
                "kilometers_per_second": "10.4543757818",
                "kilometers_per_hour": "37635.7528144145",
                "miles_per_hour": "23385.3931862677"
            },
            "miss_distance": {
                "astronomical": "0.0303120321",
                "lunar": "11.7913804869",
                "kilometers": "4534615.437531627",
                "miles": "2817679.3753533726"
            },
            "orbiting_body": "Earth"
        }
    ],
    "orbital_data": {
        "orbit_id": "5",
        "orbit_determination_date": "2020-11-22 05:19:56",
        "first_observation_date": "2020-11-13",
        "last_observation_date": "2020-11-22",
        "data_arc_in_days": 9,
        "observations_used": 40,
        "orbit_uncertainty": "8",
        "minimum_orbit_intersection": ".00484077",
        "jupiter_tisserand_invariant": "3.353",
        "epoch_osculation": "2459168.5",
        "eccentricity": ".5807998179301603",
        "semi_major_axis": "2.286146668685323",
        "inclination": "3.306733966297745",
        "ascending_node_longitude": "34.92749084083655",
        "orbital_period": "1262.567368996452",
        "perihelion_distance": ".9583530997512449",
        "perihelion_argument": "340.1735278087287",
        "aphelion_distance": "3.613940237619401",
        "perihelion_time": "2459138.633095281692",
        "mean_anomaly": "8.516049093789857",
        "mean_motion": ".2851332996877188",
        "equinox": "J2000",
        "orbit_class": {
            "orbit_class_type": "APO",
            "orbit_class_description": "Near-Earth asteroid orbits which cross the Earth’s orbit similar to that of 1862 Apollo",
            "orbit_class_range": "a (semi-major axis) > 1.0 AU; q (perihelion) < 1.017 AU"
        }
    },
    "is_sentry_object": false
}